{
  "type": "FeatureCollection",
  "features": [
    {
      "type": "Feature",
      "properties": {
        "norad_id": 31307,
        "name": "GALAXY 17 (G-17)",
        "group": "intelsat",
        "lat": -2.3295715612892454,
        "lon": -28.574868442083076,
        "alt_km": 35785.99248361948,
        "timestamp": "2025-12-07T22:37:42.750475+00:00",
        "meta_object_name": "GALAXY 17 (G-17)",
        "meta_object_id": "2007-016B",
        "meta_epoch": "2025-12-07T07:30:03.174336",
        "meta_mean_motion": 1.00270009,
        "meta_eccentricity": 0.0006037,
        "meta_inclination": 2.4859,
        "meta_ra_of_asc_node": 82.3457,
        "meta_arg_of_pericenter": 161.0096,
        "meta_mean_anomaly": 220.4883,
        "meta_ephemeris_type": 0,
        "meta_classification_type": "U",
        "meta_norad_cat_id": 31307,
        "meta_element_set_no": 999,
        "meta_rev_at_epoch": 6788,
        "meta_bstar": 0,
        "meta_mean_motion_dot": -2.03e-06,
        "meta_mean_motion_ddot": 0,
        "tle_line1": "1 31307U 07016B   25341.31253674 -.00000203  00000+0  00000+0 0  9998",
        "tle_line2": "2 31307   2.4859  82.3457 0006037 161.0096 220.4883  1.00270009 67887"
      },
      "geometry": {
        "type": "Point",
        "coordinates": [
          -28.574868442083076,
          -2.3295715612892454
        ]
      }
    },
    {
      "type": "Feature",
      "properties": {
        "norad_id": 31862,
        "name": "DIRECTV 10",
        "group": "intelsat",
        "lat": 0.0059390993571202715,
        "lon": -46.408973632958855,
        "alt_km": 35785.90456705931,
        "timestamp": "2025-12-07T22:37:42.750487+00:00",
        "meta_object_name": "DIRECTV 10",
        "meta_object_id": "2007-032A",
        "meta_epoch": "2025-12-07T07:18:26.373888",
        "meta_mean_motion": 1.00269963,
        "meta_eccentricity": 3.131e-05,
        "meta_inclination": 0.0034,
        "meta_ra_of_asc_node": 221.9555,
        "meta_arg_of_pericenter": 33.2255,
        "meta_mean_anomaly": 187.97,
        "meta_ephemeris_type": 0,
        "meta_classification_type": "U",
        "meta_norad_cat_id": 31862,
        "meta_element_set_no": 999,
        "meta_rev_at_epoch": 4366,
        "meta_bstar": 0,
        "meta_mean_motion_dot": -9.8e-07,
        "meta_mean_motion_ddot": 0,
        "tle_line1": "1 31862U 07032A   25341.30447192 -.00000098  00000+0  00000+0 0  9993",
        "tle_line2": "2 31862   0.0034 221.9555 0000313  33.2255 187.9700  1.00269963 43662"
      },
      "geometry": {
        "type": "Point",
        "coordinates": [
          -46.408973632958855,
          0.0059390993571202715
        ]
      }
    },
    {
      "type": "Feature",
      "properties": {
        "norad_id": 32253,
        "name": "INTELSAT 11 (IS-11)",
        "group": "intelsat",
        "lat": -2.0785849907849725,
        "lon": -56.758663271635086,
        "alt_km": 36112.55857652771,
        "timestamp": "2025-12-07T22:37:42.750499+00:00",
        "meta_object_name": "INTELSAT 11 (IS-11)",
        "meta_object_id": "2007-044B",
        "meta_epoch": "2025-12-07T07:14:23.481888",
        "meta_mean_motion": 0.99047299,
        "meta_eccentricity": 0.00092322,
        "meta_inclination": 3.0656,
        "meta_ra_of_asc_node": 81.0352,
        "meta_arg_of_pericenter": 163.5456,
        "meta_mean_anomaly": 189.9763,
        "meta_ephemeris_type": 0,
        "meta_classification_type": "U",
        "meta_norad_cat_id": 32253,
        "meta_element_set_no": 999,
        "meta_rev_at_epoch": 6654,
        "meta_bstar": 0,
        "meta_mean_motion_dot": 5.6e-07,
        "meta_mean_motion_ddot": 0,
        "tle_line1": "1 32253U 07044B   25341.30166067  .00000056  00000+0  00000+0 0  9993",
        "tle_line2": "2 32253   3.0656  81.0352 0009232 163.5456 189.9763  0.99047299 66545"
      },
      "geometry": {
        "type": "Point",
        "coordinates": [
          -56.758663271635086,
          -2.0785849907849725
        ]
      }
    },
    {
      "type": "Feature",
      "properties": {
        "norad_id": 32388,
        "name": "HORIZONS-2",
        "group": "intelsat",
        "lat": -2.074972617634577,
        "lon": -17.346533599427573,
        "alt_km": 35780.97362131473,
        "timestamp": "2025-12-07T22:37:42.750511+00:00",
        "meta_object_name": "HORIZONS-2",
        "meta_object_id": "2007-063B",
        "meta_epoch": "2025-12-07T07:56:06.896832",
        "meta_mean_motion": 1.00270967,
        "meta_eccentricity": 0.00050796,
        "meta_inclination": 2.107,
        "meta_ra_of_asc_node": 83.0174,
        "meta_arg_of_pericenter": 184.9695,
        "meta_mean_anomaly": 213.6188,
        "meta_ephemeris_type": 0,
        "meta_classification_type": "U",
        "meta_norad_cat_id": 32388,
        "meta_element_set_no": 999,
        "meta_rev_at_epoch": 6589,
        "meta_bstar": 0,
        "meta_mean_motion_dot": -2.5e-06,
        "meta_mean_motion_ddot": 0,
        "tle_line1": "1 32388U 07063B   25341.33063538 -.00000250  00000+0  00000+0 0  9992",
        "tle_line2": "2 32388   2.1070  83.0174 0005079 184.9695 213.6188  1.00270967 65891"
      },
      "geometry": {
        "type": "Point",
        "coordinates": [
          -17.346533599427573,
          -2.074972617634577
        ]
      }
    },
    {
      "type": "Feature",
      "properties": {
        "norad_id": 32729,
        "name": "DIRECTV 11",
        "group": "intelsat",
        "lat": 0.0007607500677863223,
        "lon": -42.79200947676425,
        "alt_km": 35785.88361113071,
        "timestamp": "2025-12-07T22:37:42.750523+00:00",
        "meta_object_name": "DIRECTV 11",
        "meta_object_id": "2008-013A",
        "meta_epoch": "2025-12-06T11:28:54.626592",
        "meta_mean_motion": 1.00274292,
        "meta_eccentricity": 5.186e-05,
        "meta_inclination": 0.0204,
        "meta_ra_of_asc_node": 155.7645,
        "meta_arg_of_pericenter": 58.6641,
        "meta_mean_anomaly": 294.1227,
        "meta_ephemeris_type": 0,
        "meta_classification_type": "U",
        "meta_norad_cat_id": 32729,
        "meta_element_set_no": 999,
        "meta_rev_at_epoch": 4366,
        "meta_bstar": 0,
        "meta_mean_motion_dot": -1.19e-06,
        "meta_mean_motion_ddot": 0,
        "tle_line1": "1 32729U 08013A   25340.47841003 -.00000119  00000+0  00000+0 0  9996",
        "tle_line2": "2 32729   0.0204 155.7645 0000518  58.6641 294.1227  1.00274292 43661"
      },
      "geometry": {
        "type": "Point",
        "coordinates": [
          -42.79200947676425,
          0.0007607500677863223
        ]
      }
    },
    {
      "type": "Feature",
      "properties": {
        "norad_id": 32951,
        "name": "GALAXY 18 (G-18)",
        "group": "intelsat",
        "lat": -0.0276058499076592,
        "lon": -66.61351556582716,
        "alt_km": 35774.76170892901,
        "timestamp": "2025-12-07T22:37:42.750535+00:00",
        "meta_object_name": "GALAXY 18 (G-18)",
        "meta_object_id": "2008-024A",
        "meta_epoch": "2025-12-07T08:07:14.505312",
        "meta_mean_motion": 1.00270181,
        "meta_eccentricity": 0.0003321,
        "meta_inclination": 0.021,
        "meta_ra_of_asc_node": 57.0704,
        "meta_arg_of_pericenter": 202.8422,
        "meta_mean_anomaly": 175.2489,
        "meta_ephemeris_type": 0,
        "meta_classification_type": "U",
        "meta_norad_cat_id": 32951,
        "meta_element_set_no": 999,
        "meta_rev_at_epoch": 4392,
        "meta_bstar": 0,
        "meta_mean_motion_dot": 3e-07,
        "meta_mean_motion_ddot": 0,
        "tle_line1": "1 32951U 08024A   25341.33836233  .00000030  00000+0  00000+0 0  9991",
        "tle_line2": "2 32951   0.0210  57.0704 0003321 202.8422 175.2489  1.00270181 43921"
      },
      "geometry": {
        "type": "Point",
        "coordinates": [
          -66.61351556582716,
          -0.0276058499076592
        ]
      }
    },
    {
      "type": "Feature",
      "properties": {
        "norad_id": 33153,
        "name": "INTELSAT 25 (IS-25)",
        "group": "intelsat",
        "lat": -1.8575883450752881,
        "lon": 24.962672628155897,
        "alt_km": 35798.32446384517,
        "timestamp": "2025-12-07T22:37:42.750548+00:00",
        "meta_object_name": "INTELSAT 25 (IS-25)",
        "meta_object_id": "2008-034A",
        "meta_epoch": "2025-12-07T06:38:10.184928",
        "meta_mean_motion": 1.00270614,
        "meta_eccentricity": 0.00054455,
        "meta_inclination": 2.2131,
        "meta_ra_of_asc_node": 82.7068,
        "meta_arg_of_pericenter": 182.0154,
        "meta_mean_anomaly": 239.6308,
        "meta_ephemeris_type": 0,
        "meta_classification_type": "U",
        "meta_norad_cat_id": 33153,
        "meta_element_set_no": 999,
        "meta_rev_at_epoch": 6377,
        "meta_bstar": 0,
        "meta_mean_motion_dot": -2.2e-06,
        "meta_mean_motion_ddot": 0,
        "tle_line1": "1 33153U 08034A   25341.27650677 -.00000220  00000+0  00000+0 0  9998",
        "tle_line2": "2 33153   2.2131  82.7068 0005445 182.0154 239.6308  1.00270614 63771"
      },
      "geometry": {
        "type": "Point",
        "coordinates": [
          24.962672628155897,
          -1.8575883450752881
        ]
      }
    }
  ]
}